{
    "links": {
        "self": "http://www.neowsapp.com/rest/v1/neo/3703243?api_key=iIulBulltgU6a56xZRHN4H3l9WmuAYTsLGpBGhQ2"
    },
    "id": "3703243",
    "neo_reference_id": "3703243",
    "name": "(2014 YZ41)",
    "designation": "2014 YZ41",
    "nasa_jpl_url": "http://ssd.jpl.nasa.gov/sbdb.cgi?sstr=3703243",
    "absolute_magnitude_h": 23.6,
    "estimated_diameter": {
        "kilometers": {
            "estimated_diameter_min": 0.0506471459,
            "estimated_diameter_max": 0.1132504611
        },
        "meters": {
            "estimated_diameter_min": 50.6471458835,
            "estimated_diameter_max": 113.2504610618
        },
        "miles": {
            "estimated_diameter_min": 0.0314706677,
            "estimated_diameter_max": 0.0703705522
        },
        "feet": {
            "estimated_diameter_min": 166.1651821003,
            "estimated_diameter_max": 371.5566426699
        }
    },
    "is_potentially_hazardous_asteroid": false,
    "close_approach_data": [
        {
            "close_approach_date": "2014-12-15",
            "close_approach_date_full": "2014-Dec-15 06:15",
            "epoch_date_close_approach": 1418624100000,
            "relative_velocity": {
                "kilometers_per_second": "11.7541238395",
                "kilometers_per_hour": "42314.8458222659",
                "miles_per_hour": "26292.7996166185"
            },
            "miss_distance": {
                "astronomical": "0.0537150948",
                "lunar": "20.8951718772",
                "kilometers": "8035663.768928076",
                "miles": "4993129.9315004088"
            },
            "orbiting_body": "Earth"
        }
    ],
    "orbital_data": {
        "orbit_id": "5",
        "orbit_determination_date": "2017-04-06 08:36:35",
        "first_observation_date": "2014-12-29",
        "last_observation_date": "2015-01-07",
        "data_arc_in_days": 9,
        "observations_used": 31,
        "orbit_uncertainty": "8",
        "minimum_orbit_intersection": ".0191487",
        "jupiter_tisserand_invariant": "4.830",
        "epoch_osculation": "2457021.5",
        "eccentricity": ".3721315887907879",
        "semi_major_axis": "1.335901779463526",
        "inclination": "6.426174385911338",
        "ascending_node_longitude": "88.55383671229455",
        "orbital_period": "563.9754759023119",
        "perihelion_distance": ".8387705278033236",
        "perihelion_argument": "286.2414412148103",
        "aphelion_distance": "1.833033031123729",
        "perihelion_time": "2456957.771556286687",
        "mean_anomaly": "40.67949887375348",
        "mean_motion": ".6383256282979879",
        "equinox": "J2000",
        "orbit_class": {
            "orbit_class_type": "APO",
            "orbit_class_description": "Near-Earth asteroid orbits which cross the Earth’s orbit similar to that of 1862 Apollo",
            "orbit_class_range": "a (semi-major axis) > 1.0 AU; q (perihelion) < 1.017 AU"
        }
    },
    "is_sentry_object": false
}